[
    {
        "OBJECT_NAME": "SHIJIAN-16 (SJ-16)",
        "OBJECT_ID": "2013-057A",
        "EPOCH": "2026-06-06T22:00:41.005728",
        "MEAN_MOTION": 14.9259127,
        "ECCENTRICITY": 0.00169851,
        "INCLINATION": 74.9732,
        "RA_OF_ASC_NODE": 16.1349,
        "ARG_OF_PERICENTER": 254.5804,
        "MEAN_ANOMALY": 105.3508,
        "EPHEMERIS_TYPE": 0,
        "CLASSIFICATION_TYPE": "U",
        "NORAD_CAT_ID": 39358,
        "ELEMENT_SET_NO": 999,
        "REV_AT_EPOCH": 68481,
        "BSTAR": 0.00016374423,
        "MEAN_MOTION_DOT": 1.66e-05,
        "MEAN_MOTION_DDOT": 0
    },
    {
        "OBJECT_NAME": "SL-4 R/B",
        "OBJECT_ID": "2014-021B",
        "EPOCH": "2026-06-06T13:31:57.153216",
        "MEAN_MOTION": 15.41723399,
        "ECCENTRICITY": 0.0091597,
        "INCLINATION": 51.6055,
        "RA_OF_ASC_NODE": 262.8077,
        "ARG_OF_PERICENTER": 67.3204,
        "MEAN_ANOMALY": 293.7434,
        "EPHEMERIS_TYPE": 0,
        "CLASSIFICATION_TYPE": "U",
        "NORAD_CAT_ID": 39679,
        "ELEMENT_SET_NO": 999,
        "REV_AT_EPOCH": 66997,
        "BSTAR": 0.00032507,
        "MEAN_MOTION_DOT": 0.00015814,
        "MEAN_MOTION_DDOT": 0
    },
    {
        "OBJECT_NAME": "ALOS-2",
        "OBJECT_ID": "2014-029A",
        "EPOCH": "2026-06-06T22:14:18.539808",
        "MEAN_MOTION": 14.79467529,
        "ECCENTRICITY": 0.00016798,
        "INCLINATION": 97.9212,
        "RA_OF_ASC_NODE": 255.2373,
        "ARG_OF_PERICENTER": 89.7986,
        "MEAN_ANOMALY": 270.3418,
        "EPHEMERIS_TYPE": 0,
        "CLASSIFICATION_TYPE": "U",
        "NORAD_CAT_ID": 39766,
        "ELEMENT_SET_NO": 999,
        "REV_AT_EPOCH": 65006,
        "BSTAR": 0.00019877568,
        "MEAN_MOTION_DOT": 1.433e-05,
        "MEAN_MOTION_DDOT": 0
    },
    {
        "OBJECT_NAME": "YAOGAN-29",
        "OBJECT_ID": "2015-069A",
        "EPOCH": "2026-06-06T22:08:35.683008",
        "MEAN_MOTION": 14.830783,
        "ECCENTRICITY": 0.00029879,
        "INCLINATION": 98.0031,
        "RA_OF_ASC_NODE": 186.5393,
        "ARG_OF_PERICENTER": 70.7085,
        "MEAN_ANOMALY": 289.4451,
        "EPHEMERIS_TYPE": 0,
        "CLASSIFICATION_TYPE": "U",
        "NORAD_CAT_ID": 41038,
        "ELEMENT_SET_NO": 999,
        "REV_AT_EPOCH": 56910,
        "BSTAR": 9.5583255e-05,
        "MEAN_MOTION_DOT": 7.24e-06,
        "MEAN_MOTION_DDOT": 0
    },
    {
        "OBJECT_NAME": "ASTRO-H (HITOMI)",
        "OBJECT_ID": "2016-012A",
        "EPOCH": "2026-06-06T15:49:41.022048",
        "MEAN_MOTION": 15.10466098,
        "ECCENTRICITY": 0.00095569,
        "INCLINATION": 30.9975,
        "RA_OF_ASC_NODE": 142.1764,
        "ARG_OF_PERICENTER": 148.3935,
        "MEAN_ANOMALY": 211.7279,
        "EPHEMERIS_TYPE": 0,
        "CLASSIFICATION_TYPE": "U",
        "NORAD_CAT_ID": 41337,
        "ELEMENT_SET_NO": 999,
        "REV_AT_EPOCH": 56569,
        "BSTAR": 0.00015862767,
        "MEAN_MOTION_DOT": 2.773e-05,
        "MEAN_MOTION_DDOT": 0
    },
    {
        "OBJECT_NAME": "HXMT (HUIYAN)",
        "OBJECT_ID": "2017-034A",
        "EPOCH": "2026-06-06T22:31:20.481600",
        "MEAN_MOTION": 15.18402182,
        "ECCENTRICITY": 0.00301705,
        "INCLINATION": 43.0131,
        "RA_OF_ASC_NODE": 240.1073,
        "ARG_OF_PERICENTER": 79.4545,
        "MEAN_ANOMALY": 280.97,
        "EPHEMERIS_TYPE": 0,
        "CLASSIFICATION_TYPE": "U",
        "NORAD_CAT_ID": 42758,
        "ELEMENT_SET_NO": 999,
        "REV_AT_EPOCH": 49610,
        "BSTAR": 0.0002628497,
        "MEAN_MOTION_DOT": 5.327e-05,
        "MEAN_MOTION_DDOT": 0
    },
    {
        "OBJECT_NAME": "SAOCOM 1A",
        "OBJECT_ID": "2018-076A",
        "EPOCH": "2026-06-06T22:36:23.894208",
        "MEAN_MOTION": 14.82167046,
        "ECCENTRICITY": 0.00015106,
        "INCLINATION": 97.8884,
        "RA_OF_ASC_NODE": 344.8394,
        "ARG_OF_PERICENTER": 80.247,
        "MEAN_ANOMALY": 279.8914,
        "EPHEMERIS_TYPE": 0,
        "CLASSIFICATION_TYPE": "U",
        "NORAD_CAT_ID": 43641,
        "ELEMENT_SET_NO": 999,
        "REV_AT_EPOCH": 41458,
        "BSTAR": 7.3322626e-05,
        "MEAN_MOTION_DOT": 5.32e-06,
        "MEAN_MOTION_DDOT": 0
    },
    {
        "OBJECT_NAME": "H-2A R/B",
        "OBJECT_ID": "2018-084L",
        "EPOCH": "2026-06-06T19:55:34.063968",
        "MEAN_MOTION": 15.44753789,
        "ECCENTRICITY": 0.0024357,
        "INCLINATION": 98.8587,
        "RA_OF_ASC_NODE": 34.4596,
        "ARG_OF_PERICENTER": 75.2215,
        "MEAN_ANOMALY": 285.1725,
        "EPHEMERIS_TYPE": 0,
        "CLASSIFICATION_TYPE": "U",
        "NORAD_CAT_ID": 43682,
        "ELEMENT_SET_NO": 999,
        "REV_AT_EPOCH": 41952,
        "BSTAR": 0.00046775614,
        "MEAN_MOTION_DOT": 0.00022032,
        "MEAN_MOTION_DDOT": 0
    },
    {
        "OBJECT_NAME": "SAOCOM 1B",
        "OBJECT_ID": "2020-059A",
        "EPOCH": "2026-06-06T21:44:12.548256",
        "MEAN_MOTION": 14.82163774,
        "ECCENTRICITY": 0.00015188,
        "INCLINATION": 97.8888,
        "RA_OF_ASC_NODE": 343.8981,
        "ARG_OF_PERICENTER": 76.8178,
        "MEAN_ANOMALY": 283.3205,
        "EPHEMERIS_TYPE": 0,
        "CLASSIFICATION_TYPE": "U",
        "NORAD_CAT_ID": 46265,
        "ELEMENT_SET_NO": 999,
        "REV_AT_EPOCH": 31196,
        "BSTAR": 6.7096898e-05,
        "MEAN_MOTION_DOT": 4.82e-06,
        "MEAN_MOTION_DDOT": 0
    },
    {
        "OBJECT_NAME": "CSS (TIANHE)",
        "OBJECT_ID": "2021-035A",
        "EPOCH": "2026-06-06T16:10:17.689440",
        "MEAN_MOTION": 15.60361832,
        "ECCENTRICITY": 0.00091504,
        "INCLINATION": 41.4692,
        "RA_OF_ASC_NODE": 25.9625,
        "ARG_OF_PERICENTER": 355.7318,
        "MEAN_ANOMALY": 4.3441,
        "EPHEMERIS_TYPE": 0,
        "CLASSIFICATION_TYPE": "U",
        "NORAD_CAT_ID": 48274,
        "ELEMENT_SET_NO": 999,
        "REV_AT_EPOCH": 29152,
        "BSTAR": 0.0003421058,
        "MEAN_MOTION_DOT": 0.00028669,
        "MEAN_MOTION_DDOT": 0
    },
    {
        "OBJECT_NAME": "COSMOS 2550",
        "OBJECT_ID": "2021-056A",
        "EPOCH": "2026-06-06T23:34:06.738816",
        "MEAN_MOTION": 15.3373317,
        "ECCENTRICITY": 0.00086965,
        "INCLINATION": 67.1421,
        "RA_OF_ASC_NODE": 130.7756,
        "ARG_OF_PERICENTER": 266.6724,
        "MEAN_ANOMALY": 93.3436,
        "EPHEMERIS_TYPE": 0,
        "CLASSIFICATION_TYPE": "U",
        "NORAD_CAT_ID": 48865,
        "ELEMENT_SET_NO": 999,
        "REV_AT_EPOCH": 27715,
        "BSTAR": 0.00019152671,
        "MEAN_MOTION_DOT": 6.096e-05,
        "MEAN_MOTION_DDOT": 0
    },
    {
        "OBJECT_NAME": "CZ-2C R/B",
        "OBJECT_ID": "2022-058K",
        "EPOCH": "2026-06-05T11:12:48.006720",
        "MEAN_MOTION": 15.61032214,
        "ECCENTRICITY": 0.00332157,
        "INCLINATION": 50.1841,
        "RA_OF_ASC_NODE": 224.4658,
        "ARG_OF_PERICENTER": 218.6451,
        "MEAN_ANOMALY": 141.2145,
        "EPHEMERIS_TYPE": 0,
        "CLASSIFICATION_TYPE": "U",
        "NORAD_CAT_ID": 52794,
        "ELEMENT_SET_NO": 999,
        "REV_AT_EPOCH": 22381,
        "BSTAR": 0.00044812892,
        "MEAN_MOTION_DOT": 0.00039184,
        "MEAN_MOTION_DDOT": 0
    }
]