SHIJIAN-16 (SJ-16)      
1 39358U 13057A   26157.91714127  .00001660  00000+0  16374-3 0  9993
2 39358  74.9732  16.1349 0016985 254.5804 105.3508 14.92591270684812
SL-4 R/B                
1 39679U 14021B   26157.56385594  .00015814  00000+0  32507-3 0  9996
2 39679  51.6055 262.8077 0091597  67.3204 293.7434 15.41723399669976
ALOS-2                  
1 39766U 14029A   26157.92660347  .00001433  00000+0  19878-3 0  9991
2 39766  97.9212 255.2373 0001679  89.7986 270.3418 14.79467529650066
YAOGAN-29               
1 41038U 15069A   26157.92263522  .00000724  00000+0  95583-4 0  9995
2 41038  98.0031 186.5393 0002987  70.7085 289.4451 14.83078300569105
ASTRO-H (HITOMI)        
1 41337U 16012A   26157.65950257  .00002773  00000+0  15863-3 0  9992
2 41337  30.9975 142.1764 0009556 148.3935 211.7279 15.10466098565696
HXMT (HUIYAN)           
1 42758U 17034A   26157.93843150  .00005327  00000+0  26285-3 0  9997
2 42758  43.0131 240.1073 0030170  79.4545 280.9700 15.18402182496100
SAOCOM 1A               
1 43641U 18076A   26157.94194322  .00000532  00000+0  73323-4 0  9996
2 43641  97.8884 344.8394 0001510  80.2470 279.8914 14.82167046414588
H-2A R/B                
1 43682U 18084L   26157.83025537  .00022032  00000+0  46776-3 0  9999
2 43682  98.8587  34.4596 0024357  75.2215 285.1725 15.44753789419528
SAOCOM 1B               
1 46265U 20059A   26157.90570079  .00000482  00000+0  67097-4 0  9993
2 46265  97.8888 343.8981 0001518  76.8178 283.3205 14.82163774311967
CSS (TIANHE)            
1 48274U 21035A   26157.67381585  .00028669  00000+0  34211-3 0  9994
2 48274  41.4692  25.9625 0009150 355.7318   4.3441 15.60361832291529
COSMOS 2550             
1 48865U 21056A   26157.98202244  .00006096  00000+0  19153-3 0  9999
2 48865  67.1421 130.7756 0008696 266.6724  93.3436 15.33733170277158
CZ-2C R/B               
1 52794U 22058K   26156.46722230  .00039184  00000+0  44813-3 0  9997
2 52794  50.1841 224.4658 0033215 218.6451 141.2145 15.61032214223819
